{"type": "FeatureCollection", "features": [ {"type": "Feature", "properties": {"norad_id": 66584, "name": "STARLINK-35939", "group": "last-30-days", "lat": 25.364088770047328, "lon": -152.50883649509782, "alt_km": 394.7636894006173, "timestamp": "2025-12-23T11:34:46.944862+00:00", "meta": {"OBJECT_NAME": "STARLINK-35939", "OBJECT_ID": "2025-268AD", "EPOCH": "2025-12-23T04:00:01.998720", "MEAN_MOTION": 15.56469074, "ECCENTRICITY": 0.0001379, "INCLINATION": 43.0003, "RA_OF_ASC_NODE": 59.9347, "ARG_OF_PERICENTER": 275.0624, "MEAN_ANOMALY": 254.3606, "EPHEMERIS_TYPE": 0, "CLASSIFICATION_TYPE": "U", "NORAD_CAT_ID": 66584, "ELEMENT_SET_NO": 999, "REV_AT_EPOCH": 608, "BSTAR": -0.0016426, "MEAN_MOTION_DOT": -0.00118032, "MEAN_MOTION_DDOT": 0}, "tle": {"line1": "1 66584U 25268AD  25357.16668980 -.00118032  00000+0 -16426-2 0  9995", "line2": "2 66584  43.0003  59.9347 0001379 275.0624 254.3606 15.56469074  6081"}}, "geometry": {"type": "Point", "coordinates": [-152.50883649509782, 25.364088770047328]}}, {"type": "Feature", "properties": {"norad_id": 66585, "name": "STARLINK-35963", "group": "last-30-days", "lat": 40.76757610007376, "lon": 170.44996571276226, "alt_km": 420.38330174148723, "timestamp": "2025-12-23T11:34:46.944872+00:00", "meta": {"OBJECT_NAME": "STARLINK-35963", "OBJECT_ID": "2025-268AE", "EPOCH": "2025-12-23T04:00:01.998720", "MEAN_MOTION": 15.48309161, "ECCENTRICITY": 0.0001185, "INCLINATION": 43.0002, "RA_OF_ASC_NODE": 59.9936, "ARG_OF_PERICENTER": 281.9479, "MEAN_ANOMALY": 223.2001, "EPHEMERIS_TYPE": 0, "CLASSIFICATION_TYPE": "U", "NORAD_CAT_ID": 66585, "ELEMENT_SET_NO": 999, "REV_AT_EPOCH": 608, "BSTAR": -0.042207, "MEAN_MOTION_DOT": -0.02035574, "MEAN_MOTION_DDOT": 0}, "tle": {"line1": "1 66585U 25268AE  25357.16668980 -.02035574  00000+0 -42207-1 0  9992", "line2": "2 66585  43.0002  59.9936 0001185 281.9479 223.2001 15.48309161  6089"}}, "geometry": {"type": "Point", "coordinates": [170.44996571276226, 40.76757610007376]}}, {"type": "Feature", "properties": {"norad_id": 66586, "name": "TJS-21", "group": "last-30-days", "lat": 60.717495467120564, "lon": -82.79182551124285, "alt_km": 36057.76685774631, "timestamp": "2025-12-23T11:34:46.944883+00:00", "meta": {"OBJECT_NAME": "TJS-21", "OBJECT_ID": "2025-269A", "EPOCH": "2025-12-18T16:58:10.473888", "MEAN_MOTION": 2.00580748, "ECCENTRICITY": 0.6806869, "INCLINATION": 63.2733, "RA_OF_ASC_NODE": 161.7218, "ARG_OF_PERICENTER": 269.7428, "MEAN_ANOMALY": 18.6663, "EPHEMERIS_TYPE": 0, "CLASSIFICATION_TYPE": "U", "NORAD_CAT_ID": 66586, "ELEMENT_SET_NO": 999, "REV_AT_EPOCH": 55, "BSTAR": -0.059507049, "MEAN_MOTION_DOT": 1.084e-05, "MEAN_MOTION_DDOT": 0}, "tle": {"line1": "1 66586U 25269A   25352.70706567  .00001084  00000+0 -59507-1 0  9990", "line2": "2 66586  63.2733 161.7218 6806869 269.7428  18.6663  2.00580748   558"}}, "geometry": {"type": "Point", "coordinates": [-82.79182551124285, 60.717495467120564]}}, {"type": "Feature", "properties": {"norad_id": 66588, "name": "STARLINK-36076", "group": "last-30-days", "lat": -42.94717813695279, "lon": 37.98047076564256, "alt_km": 444.33645911350413, "timestamp": "2025-12-23T11:34:46.944895+00:00", "meta": {"OBJECT_NAME": "STARLINK-36076", "OBJECT_ID": "2025-270A", "EPOCH": "2025-12-23T02:38:34.805184", "MEAN_MOTION": 15.40731596, "ECCENTRICITY": 0.0004272, "INCLINATION": 43.0039, "RA_OF_ASC_NODE": 133.0201, "ARG_OF_PERICENTER": 258.3839, "MEAN_ANOMALY": 101.6538, "EPHEMERIS_TYPE": 0, "CLASSIFICATION_TYPE": "U", "NORAD_CAT_ID": 66588, "ELEMENT_SET_NO": 999, "REV_AT_EPOCH": 594, "BSTAR": 0.0010463, "MEAN_MOTION_DOT": 0.00043711, "MEAN_MOTION_DDOT": 0}, "tle": {"line1": "1 66588U 25270A   25357.11012506  .00043711  00000+0  10463-2 0  9998", "line2": "2 66588  43.0039 133.0201 0004272 258.3839 101.6538 15.40731596  5940"}}, "geometry": {"type": "Point", "coordinates": [37.98047076564256, -42.94717813695279]}}, {"type": "Feature", "properties": {"norad_id": 66589, "name": "STARLINK-35447", "group": "last-30-days", "lat": 4.970525544533545, "lon": 135.99299431031878, "alt_km": 443.1033949656239, "timestamp": "2025-12-23T11:34:46.944906+00:00", "meta": {"OBJECT_NAME": "STARLINK-35447", "OBJECT_ID": "2025-270B", "EPOCH": "2025-12-23T02:12:47.058048", "MEAN_MOTION": 15.40720731, "ECCENTRICITY": 0.0001962, "INCLINATION": 43.0005, "RA_OF_ASC_NODE": 132.8875, "ARG_OF_PERICENTER": 269.9004, "MEAN_ANOMALY": 90.1628, "EPHEMERIS_TYPE": 0, "CLASSIFICATION_TYPE": "U", "NORAD_CAT_ID": 66589, "ELEMENT_SET_NO": 999, "REV_AT_EPOCH": 605, "BSTAR": 0.00097119, "MEAN_MOTION_DOT": 0.0004051, "MEAN_MOTION_DDOT": 0}, "tle": {"line1": "1 66589U 25270B   25357.09221132  .00040510  00000+0  97119-3 0  9991", "line2": "2 66589  43.0005 132.8875 0001962 269.9004  90.1628 15.40720731  6057"}}, "geometry": {"type": "Point", "coordinates": [135.99299431031878, 4.970525544533545]}}, {"type": "Feature", "properties": {"norad_id": 66590, "name": "STARLINK-35429", "group": "last-30-days", "lat": 42.80585283502241, "lon": -133.32052981189773, "alt_km": 438.5368347621543, "timestamp": "2025-12-23T11:34:46.944915+00:00", "meta": {"OBJECT_NAME": "STARLINK-35429", "OBJECT_ID": "2025-270C", "EPOCH": "2025-12-22T18:03:25.822080", "MEAN_MOTION": 15.4072676, "ECCENTRICITY": 0.0002328, "INCLINATION": 42.9967, "RA_OF_ASC_NODE": 134.6337, "ARG_OF_PERICENTER": 265.0186, "MEAN_ANOMALY": 95.0404, "EPHEMERIS_TYPE": 0, "CLASSIFICATION_TYPE": "U", "NORAD_CAT_ID": 66590, "ELEMENT_SET_NO": 999, "REV_AT_EPOCH": 600, "BSTAR": 0.0011506, "MEAN_MOTION_DOT": 0.0004811, "MEAN_MOTION_DDOT": 0}, "tle": {"line1": "1 66590U 25270C   25356.75238220  .00048110  00000+0  11506-2 0  9990", "line2": "2 66590  42.9967 134.6337 0002328 265.0186  95.0404 15.40726760  6001"}}, "geometry": {"type": "Point", "coordinates": [-133.32052981189773, 42.80585283502241]}}, {"type": "Feature", "properties": {"norad_id": 66591, "name": "STARLINK-36058", "group": "last-30-days", "lat": -1.0339008302023887, "lon": -48.67532531961503, "alt_km": 444.2756451029054, "timestamp": "2025-12-23T11:34:46.944925+00:00", "meta": {"OBJECT_NAME": "STARLINK-36058", "OBJECT_ID": "2025-270D", "EPOCH": "2025-12-23T04:00:01.998720", "MEAN_MOTION": 15.40678963, "ECCENTRICITY": 0.0001456, "INCLINATION": 43.0006, "RA_OF_ASC_NODE": 132.0352, "ARG_OF_PERICENTER": 288.558, "MEAN_ANOMALY": 299.2396, "EPHEMERIS_TYPE": 0, "CLASSIFICATION_TYPE": "U", "NORAD_CAT_ID": 66591, "ELEMENT_SET_NO": 999, "REV_AT_EPOCH": 607, "BSTAR": 0.00077787, "MEAN_MOTION_DOT": 0.00032305, "MEAN_MOTION_DDOT": 0}, "tle": {"line1": "1 66591U 25270D   25357.16668980  .00032305  00000+0  77787-3 0  9990", "line2": "2 66591  43.0006 132.0352 0001456 288.5580 299.2396 15.40678963  6072"}}, "geometry": {"type": "Point", "coordinates": [-48.67532531961503, -1.0339008302023887]}}, {"type": "Feature", "properties": {"norad_id": 66592, "name": "STARLINK-36066", "group": "last-30-days", "lat": -27.351503972056022, "lon": 97.04259244876148, "alt_km": 445.20204574609033, "timestamp": "2025-12-23T11:34:46.944934+00:00", "meta": {"OBJECT_NAME": "STARLINK-36066", "OBJECT_ID": "2025-270E", "EPOCH": "2025-12-22T18:38:55.351392", "MEAN_MOTION": 15.40721269, "ECCENTRICITY": 0.00025171, "INCLINATION": 43.0016, "RA_OF_ASC_NODE": 134.8249, "ARG_OF_PERICENTER": 264.3222, "MEAN_ANOMALY": 95.7347, "EPHEMERIS_TYPE": 0, "CLASSIFICATION_TYPE": "U", "NORAD_CAT_ID": 66592, "ELEMENT_SET_NO": 999, "REV_AT_EPOCH": 579, "BSTAR": 0.0010129507, "MEAN_MOTION_DOT": 0.00042277, "MEAN_MOTION_DDOT": 0}, "tle": {"line1": "1 66592U 25270E   25356.77702953  .00042277  00000+0  10130-2 0  9993", "line2": "2 66592  43.0016 134.8249 0002517 264.3222  95.7347 15.40721269  5794"}}, "geometry": {"type": "Point", "coordinates": [97.04259244876148, -27.351503972056022]}}, {"type": "Feature", "properties": {"norad_id": 66593, "name": "STARLINK-36031", "group": "last-30-days", "lat": 28.656125918778464, "lon": 166.4451922930019, "alt_km": 440.1305362037974, "timestamp": "2025-12-23T11:34:46.944943+00:00", "meta": {"OBJECT_NAME": "STARLINK-36031", "OBJECT_ID": "2025-270F", "EPOCH": "2025-12-22T18:16:19.903008", "MEAN_MOTION": 15.40709411, "ECCENTRICITY": 0.0002122, "INCLINATION": 43.004, "RA_OF_ASC_NODE": 134.7018, "ARG_OF_PERICENTER": 277.8228, "MEAN_ANOMALY": 82.2387, "EPHEMERIS_TYPE": 0, "CLASSIFICATION_TYPE": "U", "NORAD_CAT_ID": 66593, "ELEMENT_SET_NO": 999, "REV_AT_EPOCH": 589, "BSTAR": 0.00056791, "MEAN_MOTION_DOT": 0.000235, "MEAN_MOTION_DDOT": 0}, "tle": {"line1": "1 66593U 25270F   25356.76134147  .00023500  00000+0  56791-3 0  9999", "line2": "2 66593  43.0040 134.7018 0002122 277.8228  82.2387 15.40709411  5893"}}, "geometry": {"type": "Point", "coordinates": [166.4451922930019, 28.656125918778464]}}, {"type": "Feature", "properties": {"norad_id": 66594, "name": "STARLINK-36032", "group": "last-30-days", "lat": 23.516556153146176, "lon": -77.53237922243555, "alt_km": 441.1662523173827, "timestamp": "2025-12-23T11:34:46.944952+00:00", "meta": {"OBJECT_NAME": "STARLINK-36032", "OBJECT_ID": "2025-270G", "EPOCH": "2025-12-23T00:00:00.998784", "MEAN_MOTION": 15.40683094, "ECCENTRICITY": 0.0001578, "INCLINATION": 43.0003, "RA_OF_ASC_NODE": 133.0866, "ARG_OF_PERICENTER": 283.1884, "MEAN_ANOMALY": 61.7028, "EPHEMERIS_TYPE": 0, "CLASSIFICATION_TYPE": "U", "NORAD_CAT_ID": 66594, "ELEMENT_SET_NO": 999, "REV_AT_EPOCH": 578, "BSTAR": 0.00044713, "MEAN_MOTION_DOT": 0.00018409, "MEAN_MOTION_DDOT": 0}, "tle": {"line1": "1 66594U 25270G   25357.00001156  .00018409  00000+0  44713-3 0  9994", "line2": "2 66594  43.0003 133.0866 0001578 283.1884  61.7028 15.40683094  5788"}}, "geometry": {"type": "Point", "coordinates": [-77.53237922243555, 23.516556153146176]}}]}